
CE-SAT-I                
1 42769U 17036E   25013.95491442  .00062346  00000+0  62531-3 0  9994
2 42769  97.1038  37.5646 0006006 155.1881 204.9669 15.65304646421069
BULGARIASAT-1           
1 42801U 17038A   25013.67917128  .00000010  00000+0  00000+0 0  9995
2 42801   0.0399  76.7183 0002672 231.2781  51.7800  1.00271204 27626
IRIDIUM 113             
1 42803U 17039A   25013.88350603  .00000114  00000+0  33757-4 0  9995
2 42803  86.4006 179.1836 0001653  81.2816 278.8567 14.34218740396756
IRIDIUM 123             
1 42804U 17039B   25013.78545296  .00000133  00000+0  40588-4 0  9990
2 42804  86.3971 210.6575 0001911  96.8948 263.2465 14.34218379395508
IRIDIUM 120             
1 42805U 17039C   25013.94693369  .00000018  00000+0 -73683-6 0  9991
2 42805  86.3996 179.0071 0002150 100.7454 259.3984 14.34218024396755
IRIDIUM 115             
1 42806U 17039D   25013.76124964  .00000581  00000+0  16668-3 0  9993
2 42806  86.4533 179.1406 0001676 105.5677 254.5709 14.43285824399341
IRIDIUM 118             
1 42807U 17039E   25013.88693712  .00000139  00000+0  42507-4 0  9990
2 42807  86.3972 210.6155 0001977  89.0195 271.1227 14.34217744395516
IRIDIUM 117             
1 42808U 17039F   25013.83618653  .00000147  00000+0  45491-4 0  9991
2 42808  86.3971 210.5993 0001861  99.0645 261.0761 14.34216838395534
IRIDIUM 126             
1 42809U 17039G   25013.93133499  .00000142  00000+0  43779-4 0  9995
2 42809  86.3971 210.6021 0001723  89.9706 270.1688 14.34216766395529
IRIDIUM 124             
1 42810U 17039H   25013.76442911  .00000696  00000+0  20087-3 0  9990
2 42810  86.4531 147.5201 0002476  99.6323 260.5158 14.43275711400191
IRIDIUM 128             
1 42811U 17039J   25013.92208616  .00000443  00000+0  15119-3 0  9991
2 42811  86.3952 242.1087 0002048  96.9108 263.2321 14.34220762395559
IRIDIUM 121             
1 42812U 17039K   25013.39222783  .00000158  00000+0  49389-4 0  9994
2 42812  86.3972 210.8513 0002160  90.5053 269.6391 14.34215509395327
HELLAS-SAT 3            
1 42814U 17040A   25013.85674446  .00000152  00000+0  00000+0 0  9992
2 42814   0.0605  48.0347 0003730 281.4076 131.5210  1.00270812 27608
GSAT-17                 
1 42815U 17040B   25013.83869068 -.00000258  00000+0  00000+0 0  9995
2 42815   0.0670  94.4352 0006714 178.2398 236.2794  1.00270088 27589
INTELSAT 35E (IS-35E)   
1 42818U 17041A   25013.51021545 -.00000238  00000+0  00000+0 0  9992
2 42818   0.0206  53.5751 0002516 250.3236 318.5222  1.00266315 27606
KANOPUS-V-IK            
1 42825U 17042A   25013.92766937  .00004228  00000+0  18586-3 0  9991
2 42825  97.3887 284.1020 0002093  93.6270 266.5206 15.22427942416346
NORSAT 1                
1 42826U 17042B   25013.43147399  .00009314  00000+0  66624-3 0  9990
2 42826  97.4051 192.4384 0009780  72.2138 288.0155 15.04615071408818
NORSAT 2                
1 42828U 17042D   25013.76995702  .00010130  00000+0  65780-3 0  9997
2 42828  97.3767 196.4896 0014100  56.4603 303.7970 15.08146516409085
TECHNOSAT               
1 42829U 17042E   25013.90850459  .00004942  00000+0  40176-3 0  9999
2 42829  97.3917 189.7547 0014435  77.3663 282.9174 14.99922323408721
FLYING LAPTOP           
1 42831U 17042G   25013.91662199  .00002737  00000+0  23935-3 0  9999
2 42831  97.3905 189.0864 0013619  86.2429 274.0351 14.97451339408640
WNISAT 1R               
1 42835U 17042L   25013.43869853  .00003903  00000+0  33726-3 0  9991
2 42835  97.3898 188.5302 0013398  85.4320 274.8433 14.97690163408606
LEMUR-2-GREENBERG       
1 42837U 17042N   25013.49221703  .00014093  00000+0  80429-3 0  9999
2 42837  97.3589 199.4525 0013942  33.6759 326.5355 15.12768758409343
LEMUR-2-ANDIS           
1 42838U 17042P   25013.75975717  .00014432  00000+0  82257-3 0  9998
2 42838  97.3557 199.3291 0015074  37.4111 322.8167 15.12796313409371
LEMUR-2-MONSON          
1 42839U 17042Q   25013.75437907  .00010438  00000+0  63191-3 0  9991
2 42839  97.3899 199.7648 0010368  22.7202 337.4485 15.10748102409297
LEMUR-2-FURIAUS         
1 42840U 17042R   25013.50257852  .00014299  00000+0  85377-3 0  9994
2 42840  97.3602 198.8215 0012705  80.1056 280.1608 15.11146852409255
LEMUR-2-PETERG          
1 42841U 17042S   25013.78330469  .00016556  00000+0  95355-3 0  9996
2 42841  97.3882 201.9101 0006208  20.4598 339.6881 15.12470567409397
LEMUR-2-DEMBITZ         
1 42842U 17042T   25013.38501056  .00015536  00000+0  91624-3 0  9997
2 42842  97.3723 200.7433 0010750  41.1050 319.0989 15.11595673409348
NANOACE                 
1 42844U 17042V   25013.92888484  .00011751  00000+0  73340-3 0  9992
2 42844  97.3489 197.8682 0006798  34.5128 325.6541 15.09629613409346
LEMUR-2-ZACHARY         
1 42845U 17042W   25013.79669639  .00017540  00000+0  87176-3 0  9991
2 42845  97.3688 203.2289 0007690  68.3751 291.8301 15.17684833409692
CORVUS BC2              
1 42846U 17042X   25013.75489387  .00004204  00000+0  33253-3 0  9998
2 42846  97.3665 193.6333 0014367  70.4948 289.7828 15.01060088408996
CORVUS BC1              
1 42847U 17042Y   25013.76146198  .00004789  00000+0  37651-3 0  9994
2 42847  97.3684 194.0651 0013846  47.4899 312.7493 15.01230535409011
VENUS                   
1 42901U 17044B   25013.92647369  .00006655  00000+0  45550-3 0  9992
2 42901  97.3461  68.7864 0004383  20.3964 339.7438 15.06395416402552
COSMOS 2520             
1 42907U 17046A   25013.09354840  .00000137  00000+0  00000+0 0  9993
2 42907   0.0349 109.6993 0000615 207.0799 234.6890  1.00274652 27180
TDRS 13                 
1 42915U 17047A   25013.31927674 -.00000094  00000+0  00000+0 0  9992
2 42915   3.5049 349.4837 0009950 115.5351 111.5494  1.00271204 27131
QZS-3 (MICHIBIKI-3)     
1 42917U 17048A   25013.67688389 -.00000348  00000+0  00000+0 0  9993
2 42917   0.0592 189.7352 0001829 106.1411 188.1476  1.00276501 27051
FORMOSAT-5              
1 42920U 17049A   25013.88309903  .00000415  00000+0  11612-3 0  9992
2 42920  98.2739  94.3443 0010973 235.8373 124.1782 14.50958948391376
ORS-5 SENSORSAT         
1 42921U 17050A   25009.28995707  .00004224  00000+0  28232-3 0  9995
2 42921   0.0489  80.2795 0011178 186.1837  93.4090 14.97776125402813
AMAZONAS 5              
1 42934U 17053A   25013.80957351 -.00000283  00000+0  00000+0 0  9999
2 42934   0.0347 330.9619 0005469 329.8234  43.1438  1.00269638 26831
COSMOS 2522 [GLONASS-M] 
1 42939U 17055A   25013.65328381  .00000075  00000+0  00000+0 0  9992
2 42939  64.0786 209.5786 0005693 225.7801 134.2122  2.13101899 56904
ASIASAT 9               
1 42942U 17057A   25013.67688389 -.00000360  00000+0  00000+0 0  9995
2 42942   0.0137  47.9368 0002148 244.9997 186.2250  1.00270139 26656
YAOGAN-30 02A           
1 42945U 17058A   25013.90898720  .00004519  00000+0  37433-3 0  9990
2 42945  34.9985 305.6561 0004434 289.0551  70.9675 14.98310954397822
YAOGAN-30 02B           
1 42946U 17058B   25013.92876179  .00004409  00000+0  36487-3 0  9993
2 42946  34.9985 305.7963 0000196 112.6851 247.3877 14.98368277397808
YAOGAN-30 02C           
1 42947U 17058C   25013.94716815  .00005174  00000+0  41656-3 0  9990
2 42947  34.9981 303.0914 0006730 329.4594  30.5720 14.99361305397696
INTELSAT 37E (IS-37E)   
1 42950U 17059A   25013.69532074 -.00000141  00000+0  00000+0 0  9994
2 42950   0.0216  48.4709 0003055 234.0532  63.2033  1.00268730 26850
BSAT-4A                 
1 42951U 17059B   25013.11368663 -.00000350  00000+0  00000+0 0  9995
2 42951   0.0353  39.1398 0003065 315.5308 268.9025  1.00269450 26586
VRSS-2                  
1 42954U 17060A   25013.94373509  .00001482  00000+0  20354-3 0  9990
2 42954  97.7260  68.2857 0017549   0.2393 359.8824 14.79705943391625
IRIDIUM 133             
1 42955U 17061A   25013.32586427  .00000382  00000+0  12939-3 0  9997
2 42955  86.3953 242.4628 0001917  90.2725 269.8691 14.34220458380265
IRIDIUM 100             
1 42956U 17061B   25013.59859602  .00000294  00000+0  97933-4 0  9995
2 42956  86.3954 242.2795 0001962  92.6777 267.4643 14.34218182380300
IRIDIUM 122             
1 42957U 17061C   25013.56688509  .00000391  00000+0  13266-3 0  9993
2 42957  86.3951 242.2915 0001761  90.1580 269.9818 14.34220295380303
IRIDIUM 129             
1 42958U 17061D   25013.38294232  .00000317  00000+0  10605-3 0  9992
2 42958  86.3952 242.4300 0001904  74.3428 285.7978 14.34221396380293
IRIDIUM 119             
1 42959U 17061E   25013.14192758  .00000393  00000+0  13341-3 0  9991
2 42959  86.3954 242.5240 0001706  88.3913 271.7478 14.34220276380278
IRIDIUM 107             
1 42960U 17061F   25013.37026488  .00000408  00000+0  13863-3 0  9990
2 42960  86.3953 242.4468 0001775 101.3125 258.8270 14.34220330380319
IRIDIUM 132             
1 42961U 17061G   25013.72544589  .00000111  00000+0  32704-4 0  9994
2 42961  86.3953 242.2814 0002012  91.8330 268.3096 14.34219552380360
IRIDIUM 136             
1 42962U 17061H   25013.89669742  .00000368  00000+0  12437-3 0  9996
2 42962  86.3953 242.2139 0001624  92.3614 267.7768 14.34217243380409
IRIDIUM 139             
1 42963U 17061J   25013.90303953  .00000385  00000+0  13048-3 0  9996
2 42963  86.3955 242.2650 0001852  96.3484 263.7923 14.34218736380410
IRIDIUM 125             
1 42964U 17061K   25013.68106338  .00000402  00000+0  13650-3 0  9999
2 42964  86.3957 242.4093 0001392  90.9579 269.1776 14.34218274380390
QZS-4 (MICHIBIKI-4)     
1 42965U 17062A   24362.55006255 -.00000326  00000+0  00000+0 0  9997
2 42965  40.4220 350.3323 0751752 271.9012 167.8126  1.00248203 26423
SES-11 (ECHOSTAR 105)   
1 42967U 17063A   25013.65797243 -.00000089  00000+0  00000+0 0  9995
2 42967   0.0228 324.8333 0002971 306.3744 334.0732  1.00271740 26512
